[
    {
        "Altitude(m)": 612502.1942935897,
        "Argument of Periapsis(deg)": 0.0,
        "Eccentricity": 0.0,
        "Inclination(deg)": 60.0,
        "Latitude(deg)": -28.13597212744141,
        "Longitude(deg)": 57.14828305152121,
        "Mean Anomaly(deg)": -32.72729999999996,
        "RAAN(deg)": 175.0,
        "Satellite Name": "Test1 790",
        "Satellite Number": 790,
        "Semi-Major Axis(m)": 6980739.136638005,
        "Time(s)": 0
    },
    {
        "Altitude(m)": 612308.6420660774,
        "Argument of Periapsis(deg)": 0.00010418945913296404,
        "Eccentricity": 0.0,
        "Inclination(deg)": 60.0,
        "Latitude(deg)": -27.6230270401683,
        "Longitude(deg)": 57.50175647550185,
        "Mean Anomaly(deg)": -32.1071938545381,
        "RAAN(deg)": 174.99957995086024,
        "Satellite Name": "Test1 790",
        "Satellite Number": 790,
        "Semi-Major Axis(m)": 6980739.136638005,
        "Time(s)": 10
    }
]